42809,IRIDIUM 126,2017,100.4,860.0,+,86.4,Active,1,LEO,USA,USA,Commercial/Government,Communications,Falcon,1 42809U 17039G   25014.55925197  .00000139  00000+0  42401-4 0  9995,2 42809  86.3972 210.3398 0001724  90.4064 269.7329 14.34216942395611,14.34216942,0.0001724,LEO
42810,IRIDIUM 124,2017,99.77,860.0,+,86.45,Active,1,LEO,USA,USA,Commercial/Government,Communications,Falcon,1 42810U 17039H   25014.38840810  .00000737  00000+0  21305-3 0  9999,2 42810  86.4531 147.2597 0002487  99.2385 260.9097 14.43276897400284,14.43276897,0.0002487,LEO
42811,IRIDIUM 128,2017,100.4,860.0,+,86.39,Active,1,LEO,USA,USA,Commercial/Government,Communications,Falcon,1 42811U 17039J   25014.61976955  .00000459  00000+0  15666-3 0  9990,2 42811  86.3950 241.8170 0002066  97.1078 263.0353 14.34221511395652,14.34221511,0.0002066,LEO
42812,IRIDIUM 121,2017,100.4,860.0,+,86.4,Active,1,LEO,USA,USA,Commercial/Government,Communications,Falcon,1 42812U 17039K   25014.57829412  .00000151  00000+0  46962-4 0  9994,2 42812  86.3972 210.3559 0002156  90.4365 269.7078 14.34215875395499,14.34215875,0.0002156,LEO
42955,IRIDIUM 133,2017,100.4,860.0,+,86.4,Active,1,LEO,USA,USA,Commercial/Government,Communications,Falcon,1 42955U 17061A   25014.58169790  .00000354  00000+0  11930-3 0  9995,2 42955  86.3951 241.9379 0001973  89.8628 270.2794 14.34218487380447,14.34218487,0.0001973,LEO
42956,IRIDIUM 100,2017,100.4,860.0,+,86.4,Active,1,LEO,USA,USA,Commercial/Government,Communications,Falcon,1 42956U 17061B   25014.57535526  .00000049  00000+0  10554-4 0  9992,2 42956  86.3952 241.8712 0001963  92.9973 267.1447 14.34217831380448,14.34217831,0.0001963,LEO
42957,IRIDIUM 122,2017,100.4,860.0,+,86.39,Active,1,LEO,USA,USA,Commercial/Government,Communications,Falcon,1 42957U 17061C   25014.61341080  .00000363  00000+0  12269-3 0  9991,2 42957  86.3949 241.8540 0001758  90.8416 269.2981 14.34220908380451,14.34220908,0.0001758,LEO
42958,IRIDIUM 129,2017,100.4,860.0,+,86.4,Active,1,LEO,USA,USA,Commercial/Government,Communications,Falcon,1 42958U 17061D   25014.56900294  .00000361  00000+0  12173-3 0  9996,2 42958  86.3950 241.9341 0001879  75.0206 285.1198 14.34222589380465,14.34222589,0.0001879,LEO
